NORAD_CAT_ID,OBJECT_NAME,OBJECT_TYPE,EPOCH,MEAN_MOTION,ECCENTRICITY,INCLINATION,RA_OF_ASC_NODE,ARG_OF_PERICENTER,MEAN_ANOMALY,BSTAR,MEAN_MOTION_DOT,MEAN_MOTION_DDOT,TLE_LINE0,TLE_LINE1,TLE_LINE2,SEMIMAJOR_AXIS,PERIOD,APOGEE,PERIGEE,DECAYED
52496.0,STARLINK-3871,PAYLOAD,2023-06-04 13:04:39,15.08839224,5.87e-05,53.2157,254.3487,75.2319,284.8738,7.807e-05,9.55e-06,0.0,0 STARLINK-3871,1 52496U 22049AX  23155.54489632  .00000955  00000-0  78070-4 0  9995,2 52496  53.2157 254.3487 0000587  75.2319 284.8738 15.08839224 60111,6917.883,95.438,540.154,539.342,0.0
52496.0,STARLINK-3871,PAYLOAD,2023-06-05 12:55:25,15.08853092,3.91e-05,53.2153,249.8873,59.1324,300.9707,2.1903e-05,6.1e-07,0.0,0 STARLINK-3871,1 52496U 22049AX  23156.53848953  .00000061  00000-0  21903-4 0  9991,2 52496  53.2153 249.8873 0000391  59.1324 300.9707 15.08853092 60266,6917.84,95.437,539.976,539.435,0.0
52496.0,STARLINK-3871,PAYLOAD,2023-06-05 16:06:11,15.08847051,4.42e-05,53.2153,249.2929,107.1819,252.9222,0.00010816,1.435e-05,0.0,0 STARLINK-3871,1 52496U 22049AX  23156.67097025  .00001435  00000-0  10816-3 0  9998,2 52496  53.2153 249.2929 0000442 107.1819 252.9222 15.08847051 60280,6917.859,95.437,540.03,539.418,0.0
52496.0,STARLINK-3871,PAYLOAD,2023-06-06 01:38:31,15.08837979,4.76e-05,53.2151,247.508,74.9196,285.1849,0.00010964,1.458e-05,0.0,0 STARLINK-3871,1 52496U 22049AX  23157.06841598  .00001458  00000-0  10964-3 0  9993,2 52496  53.2151 247.5080 0000476  74.9196 285.1849 15.08837979 60341,6917.887,95.438,540.081,539.422,0.0
52496.0,STARLINK-3871,PAYLOAD,2023-06-06 11:10:50,15.08838332,5.69e-05,53.2155,245.7242,79.7504,280.3552,5.0371e-05,5.14e-06,0.0,0 STARLINK-3871,1 52496U 22049AX  23157.46585763  .00000514  00000-0  50371-4 0  9995,2 52496  53.2155 245.7242 0000569  79.7504 280.3552 15.08838332 60403,6917.885,95.438,540.144,539.357,0.0
52496.0,STARLINK-3871,PAYLOAD,2023-06-06 12:46:13,15.08840005,5.72e-05,53.2155,245.427,80.2289,279.8768,6.8094e-05,7.96e-06,0.0,0 STARLINK-3871,1 52496U 22049AX  23157.53209592  .00000796  00000-0  68094-4 0  9999,2 52496  53.2155 245.4270 0000572  80.2289 279.8768 15.08840005 60415,6917.88,95.438,540.141,539.35,0.0
52496.0,STARLINK-3871,PAYLOAD,2023-06-07 06:15:27,15.08841126,6.05e-05,53.2151,242.1561,78.2436,281.8623,-1.8574e-05,-5.83e-06,0.0,0 STARLINK-3871,1 52496U 22049AX  23158.26073859 -.00000583  00000-0 -18574-4 0  9999,2 52496  53.2151 242.1561 0000605  78.2436 281.8623 15.08841126 60526,6917.877,95.437,540.16,539.323,0.0
52496.0,STARLINK-3871,PAYLOAD,2023-06-08 09:17:01,15.08834898,6.36e-05,53.2154,237.1034,70.452,289.654,7.2939e-05,8.73e-06,0.0,0 STARLINK-3871,1 52496U 22049AX  23159.38682110  .00000873  00000-0  72939-4 0  9994,2 52496  53.2154 237.1034 0000636  70.4520 289.6540 15.08834898 60690,6917.896,95.438,540.201,539.321,0.0
52496.0,STARLINK-3871,PAYLOAD,2023-06-08 12:27:46,15.08864617,6.44e-05,53.2153,236.5089,49.3198,310.785,-0.00031508,-5.302e-05,0.0,0 STARLINK-3871,1 52496U 22049AX  23159.51928870 -.00005302  00000-0 -31508-3 0  9995,2 52496  53.2153 236.5089 0000644  49.3198 310.7850 15.08864617 60712,6917.805,95.436,540.116,539.225,0.0
52496.0,STARLINK-3871,PAYLOAD,2023-06-09 04:21:38,15.08840432,7.07e-05,53.2162,233.5348,91.4166,268.6907,7.5565e-05,9.15e-06,0.0,0 STARLINK-3871,1 52496U 22049AX  23160.18169805  .00000915  00000-0  75565-4 0  9990,2 52496  53.2162 233.5348 0000707  91.4166 268.6907 15.08840432 60814,6917.879,95.438,540.233,539.255,0.0
52496.0,STARLINK-3871,PAYLOAD,2023-06-09 13:53:57,15.08843485,7.32e-05,53.2155,231.7498,85.1326,274.975,8.98e-05,1.142e-05,0.0,0 STARLINK-3871,1 52496U 22049AX  23160.57913564  .00001142  00000-0  89800-4 0  9992,2 52496  53.2155 231.7498 0000732  85.1326 274.9750 15.08843485 60871,6917.87,95.437,540.241,539.228,0.0
52496.0,STARLINK-3871,PAYLOAD,2023-06-09 23:26:16,15.08831685,5.3e-05,53.2147,229.9644,82.1276,277.9776,9.995e-05,1.303e-05,0.0,0 STARLINK-3871,1 52496U 22049AX  23160.97658161  .00001303  00000-0  99950-4 0  9991,2 52496  53.2147 229.9644 0000530  82.1276 277.9776 15.08831685 60938,6917.906,95.438,540.137,539.404,0.0
52496.0,STARLINK-3871,PAYLOAD,2023-06-10 10:33:58,15.08834002,5.92e-05,53.2149,227.8835,81.2914,278.8145,7.2121e-05,8.6e-06,0.0,0 STARLINK-3871,1 52496U 22049AX  23161.44026302  .00000860  00000-0  72121-4 0  9998,2 52496  53.2149 227.8835 0000592  81.2914 278.8145 15.08834002 61001,6917.899,95.438,540.173,539.354,0.0
52496.0,STARLINK-3871,PAYLOAD,2023-06-10 21:41:40,15.08833869,5.73e-05,53.2144,225.8004,101.1068,258.9989,1.7349e-05,-1.1e-07,0.0,0 STARLINK-3871,1 52496U 22049AX  23161.90394479 -.00000011  00000-0  17349-4 0  9992,2 52496  53.2144 225.8004 0000573 101.1068 258.9989 15.08833869 61075,6917.899,95.438,540.161,539.368,0.0
52496.0,STARLINK-3871,PAYLOAD,2023-06-11 04:03:13,15.0883538,5.81e-05,53.2141,224.6105,98.1475,261.9583,-1.0637e-05,-4.57e-06,0.0,0 STARLINK-3871,1 52496U 22049AX  23162.16890590 -.00000457  00000-0 -10637-4 0  9994,2 52496  53.2141 224.6105 0000581  98.1475 261.9583 15.08835380 61116,6917.895,95.438,540.161,539.358,0.0
52496.0,STARLINK-3871,PAYLOAD,2023-06-11 10:24:45,15.08838542,5.75e-05,53.214,223.4212,87.6446,272.4612,1.8078e-05,0.0,0.0,0 STARLINK-3871,1 52496U 22049AX  23162.43386350  .00000000  00000-0  18078-4 0  9997,2 52496  53.2140 223.4212 0000575  87.6446 272.4612 15.08838542 61152,6917.885,95.438,540.148,539.352,0.0
52496.0,STARLINK-3871,PAYLOAD,2023-06-11 21:32:27,15.08843332,6.08e-05,53.2142,221.3401,77.7686,282.3374,4.0983e-05,3.65e-06,0.0,0 STARLINK-3871,1 52496U 22049AX  23162.89753996  .00000365  00000-0  40983-4 0  9995,2 52496  53.2142 221.3401 0000608  77.7686 282.3374 15.08843332 61220,6917.87,95.437,540.156,539.315,0.0
52496.0,STARLINK-3871,PAYLOAD,2023-06-12 10:15:32,15.08844884,6.85e-05,53.2144,218.9617,70.2942,289.8124,0.00013427,1.85e-05,0.0,0 STARLINK-3871,1 52496U 22049AX  23163.42745728  .00001850  00000-0  13427-3 0  9991,2 52496  53.2144 218.9617 0000685  70.2942 289.8124 15.08844884 61308,6917.865,95.437,540.204,539.257,0.0
52496.0,STARLINK-3871,PAYLOAD,2023-06-13 03:44:47,15.08836577,7.32e-05,53.2143,215.6911,63.5422,296.5645,7.7888e-05,9.52e-06,0.0,0 STARLINK-3871,1 52496U 22049AX  23164.15610406  .00000952  00000-0  77888-4 0  9990,2 52496  53.2143 215.6911 0000732  63.5422 296.5645 15.08836577 61414,6917.891,95.438,540.262,539.249,0.0
52496.0,STARLINK-3871,PAYLOAD,2023-06-13 06:55:33,15.08835454,7.33e-05,53.2145,215.0964,63.9238,296.1829,6.586e-05,7.61e-06,0.0,0 STARLINK-3871,1 52496U 22049AX  23164.28858538  .00000761  00000-0  65860-4 0  9999,2 52496  53.2145 215.0964 0000733  63.9238 296.1829 15.08835454 61433,6917.894,95.438,540.266,539.252,0.0
52496.0,STARLINK-3871,PAYLOAD,2023-06-14 03:35:34,15.08840691,7.95e-05,53.2152,211.2302,62.7848,297.3225,3.4009e-06,-2.34e-06,0.0,0 STARLINK-3871,1 52496U 22049AX  23165.14970430 -.00000234  00000-0  34009-5 0  9999,2 52496  53.2152 211.2302 0000795  62.7848 297.3225 15.08840691 61563,6917.878,95.438,540.293,539.193,0.0
52496.0,STARLINK-3871,PAYLOAD,2023-06-14 19:29:25,15.08840794,7.17e-05,53.2152,208.2569,81.5959,278.5115,3.5055e-05,2.7e-06,0.0,0 STARLINK-3871,1 52496U 22049AX  23165.81210221  .00000270  00000-0  35055-4 0  9998,2 52496  53.2152 208.2569 0000717  81.5959 278.5115 15.08840794 61664,6917.878,95.438,540.239,539.247,0.0
52496.0,STARLINK-3871,PAYLOAD,2023-06-15 01:50:58,15.08834786,7.95e-05,53.2162,207.0702,99.3465,260.7617,5.8849e-05,6.49e-06,0.0,0 STARLINK-3871,1 52496U 22049AX  23166.07706563  .00000649  00000-0  58849-4 0  9992,2 52496  53.2162 207.0702 0000795  99.3465 260.7617 15.08834786 61705,6917.896,95.438,540.311,539.211,0.0
52496.0,STARLINK-3871,PAYLOAD,2023-06-15 09:47:54,15.08829873,7.79e-05,53.2156,205.582,89.3263,270.7818,8.3867e-06,-1.54e-06,0.0,0 STARLINK-3871,1 52496U 22049AX  23166.40827212 -.00000154  00000-0  83867-5 0  9995,2 52496  53.2156 205.5820 0000779  89.3263 270.7818 15.08829873 61759,6917.911,95.438,540.315,539.237,0.0
52496.0,STARLINK-3871,PAYLOAD,2023-06-15 22:30:59,15.08836892,7.59e-05,53.2144,203.1987,71.0587,289.0487,6.1763e-05,6.95e-06,0.0,0 STARLINK-3871,1 52496U 22049AX  23166.93818809  .00000695  00000-0  61763-4 0  9994,2 52496  53.2144 203.1987 0000759  71.0587 289.0487 15.08836892 61832,6917.89,95.438,540.28,539.23,0.0
52496.0,STARLINK-3871,PAYLOAD,2023-06-16 09:38:38,15.08862579,0.0001069,53.2149,201.1087,12.5301,347.5717,0.0003055,4.581e-05,0.0,0 STARLINK-3871,1 52496U 22049AX  23167.40184017  .00004581  00000-0  30550-3 0  9991,2 52496  53.2149 201.1087 0001069  12.5301 347.5717 15.08862579 61900,6917.811,95.436,540.416,538.937,0.0
52496.0,STARLINK-3871,PAYLOAD,2023-06-16 11:14:02,15.08865508,0.000101,53.2166,200.8271,87.767,272.3438,0.00026863,3.993e-05,0.0,0 STARLINK-3871,1 52496U 22049AX  23167.46808078  .00003993  00000-0  26863-3 0  9995,2 52496  53.2166 200.8271 0001010  87.7670 272.3438 15.08865508 61910,6917.802,95.436,540.366,538.969,0.0
52496.0,STARLINK-3871,PAYLOAD,2023-06-16 19:10:59,15.08844238,9.16e-05,53.2154,199.3359,77.3863,282.7232,0.00016714,2.374e-05,0.0,0 STARLINK-3871,1 52496U 22049AX  23167.79929415  .00002374  00000-0  16714-3 0  9996,2 52496  53.2154 199.3359 0000916  77.3863 282.7232 15.08844238 61968,6917.867,95.437,540.366,539.099,0.0
52496.0,STARLINK-3871,PAYLOAD,2023-06-16 22:21:45,15.08850224,0.0001389,53.2142,198.7452,87.8662,272.249,3.2085e-05,2.23e-06,0.0,0 STARLINK-3871,1 52496U 22049AX  23167.93177520  .00000223  00000-0  32085-4 0  9995,2 52496  53.2142 198.7452 0001389  87.8662 272.2490 15.08850224 61984,6917.849,95.437,540.675,538.753,0.0
52496.0,STARLINK-3871,PAYLOAD,2023-06-17 06:18:42,15.0883192,8.76e-05,53.2151,197.2542,81.3693,278.7399,5.522e-05,5.91e-06,0.0,0 STARLINK-3871,1 52496U 22049AX  23168.26298694  .00000591  00000-0  55220-4 0  9992,2 52496  53.2151 197.2542 0000876  81.3693 278.7399 15.08831920 62039,6917.905,95.438,540.376,539.164,0.0
